KUIPER-00132            
1 65763U 25217B   26063.16596023  .00044589  00000+0  11203-2 0  9991
2 65763  51.8620  30.3106 0006667 315.5732  44.4720 15.39515128 24574
KUIPER-00133            
1 65764U 25217C   26063.03362625  .00005720  00000+0  77839-3 0  9999
2 65764  51.9038  78.1294 0002100  13.3648 346.7369 14.79951241 23900
KUIPER-00139            
1 65765U 25217D   26062.25418976  .00009515  00000+0  74189-3 0  9995
2 65765  51.8855  63.2598 0007151 298.4959  61.5292 15.01754895 24046
KUIPER-00142            
1 65766U 25217E   26063.15388183  .00000662  00000+0  11578-3 0  9999
2 65766  51.9010  60.0702 0000449  78.7638 281.3375 14.79930156 24166
KUIPER-00145            
1 65767U 25217F   26063.15109046  .00004637  00000+0  63680-3 0  9996
2 65767  51.8994  62.5956 0000857  77.2791 282.8267 14.79932214 24121
KUIPER-00147            
1 65768U 25217G   26062.43942803  .00000431  00000+0  85453-4 0  9994
2 65768  51.8996  68.2396 0000774  99.6162 260.4888 14.79948148 23980
KUIPER-00148            
1 65769U 25217H   26063.11134594  .00017656  00000+0  11012-2 0  9996
2 65769  51.8786  50.5011 0008669 336.1622  23.8950 15.09562156 24298
KUIPER-00150            
1 65770U 25217J   26062.29346152  .00004684  00000+0  64228-3 0  9996
2 65770  51.9008  78.8890 0000646  50.7718 309.3301 14.79984567 23828
KUIPER-00151            
1 65771U 25217K   26063.04446515  .00006210  00000+0  84227-3 0  9993
2 65771  51.9005  68.0641 0001033  49.4998 310.6054 14.79962589 24042
KUIPER-00152            
1 65772U 25217L   26063.15924395  .00005244  00000+0  71561-3 0  9996
2 65772  51.9003  55.0492 0000823 132.1446 227.9587 14.79978161 24230
KUIPER-00153            
1 65773U 25217M   26062.39046146  .00010665  00000+0  61094-3 0  9994
2 65773  51.8767  56.8766 0010476 304.9745  55.0247 15.13069504 24140
KUIPER-00155            
1 65774U 25217N   26062.95622406  .00028005  00000+0  11851-2 0  9998
2 65774  51.8788  38.6371 0005422 313.2237  46.8291 15.22969272 24449
KUIPER-00156            
1 65775U 25217P   26063.13086143  .00006624  00000+0  89646-3 0  9993
2 65775  51.9033  50.2030 0000757  99.0073 261.0975 14.79961145 24294
KUIPER-00158            
1 65776U 25217Q   26063.06697528  .00007171  00000+0  95640-3 0  9990
2 65776  51.8962  70.3496 0001110  40.3340 319.7704 14.80471066 24015
KUIPER-00163            
1 65777U 25217R   26063.16670139  .00059249  00000+0  58326-2 0  9993
2 65777  51.8962  71.8829 0001280  20.8881  79.4184 14.91497637  5344
KUIPER-00165            
1 65778U 25217S   26062.44482291  .00013430  00000+0  17849-2 0  9991
2 65778  51.9005  63.2119 0001012 110.7749 249.3322 14.79986682 24056
KUIPER-00166            
1 65779U 25217T   26063.16740399  .00009325  00000+0  12492-2 0  9995
2 65779  51.9028  47.5392 0000722 106.0040 254.1002 14.79977563 24337
