[{"OBJECT_NAME":"KUIPER-00132","OBJECT_ID":"2025-217B","EPOCH":"2026-03-04T03:58:58.963872","MEAN_MOTION":15.39515128,"ECCENTRICITY":0.0006667,"INCLINATION":51.862,"RA_OF_ASC_NODE":30.3106,"ARG_OF_PERICENTER":315.5732,"MEAN_ANOMALY":44.472,"EPHEMERIS_TYPE":0,"CLASSIFICATION_TYPE":"U","NORAD_CAT_ID":65763,"ELEMENT_SET_NO":999,"REV_AT_EPOCH":2457,"BSTAR":0.0011203,"MEAN_MOTION_DOT":0.00044589,"MEAN_MOTION_DDOT":0},{"OBJECT_NAME":"KUIPER-00133","OBJECT_ID":"2025-217C","EPOCH":"2026-03-04T00:48:25.308000","MEAN_MOTION":14.79951241,"ECCENTRICITY":0.00021,"INCLINATION":51.9038,"RA_OF_ASC_NODE":78.1294,"ARG_OF_PERICENTER":13.3648,"MEAN_ANOMALY":346.7369,"EPHEMERIS_TYPE":0,"CLASSIFICATION_TYPE":"U","NORAD_CAT_ID":65764,"ELEMENT_SET_NO":999,"REV_AT_EPOCH":2390,"BSTAR":0.00077839,"MEAN_MOTION_DOT":5.72e-5,"MEAN_MOTION_DDOT":0},{"OBJECT_NAME":"KUIPER-00139","OBJECT_ID":"2025-217D","EPOCH":"2026-03-03T06:06:01.995264","MEAN_MOTION":15.01754895,"ECCENTRICITY":0.00071512,"INCLINATION":51.8855,"RA_OF_ASC_NODE":63.2598,"ARG_OF_PERICENTER":298.4959,"MEAN_ANOMALY":61.5292,"EPHEMERIS_TYPE":0,"CLASSIFICATION_TYPE":"U","NORAD_CAT_ID":65765,"ELEMENT_SET_NO":999,"REV_AT_EPOCH":2404,"BSTAR":0.00074189385,"MEAN_MOTION_DOT":9.515e-5,"MEAN_MOTION_DDOT":0},{"OBJECT_NAME":"KUIPER-00142","OBJECT_ID":"2025-217E","EPOCH":"2026-03-04T03:41:35.390112","MEAN_MOTION":14.79930156,"ECCENTRICITY":4.49e-5,"INCLINATION":51.901,"RA_OF_ASC_NODE":60.0702,"ARG_OF_PERICENTER":78.7638,"MEAN_ANOMALY":281.3375,"EPHEMERIS_TYPE":0,"CLASSIFICATION_TYPE":"U","NORAD_CAT_ID":65766,"ELEMENT_SET_NO":999,"REV_AT_EPOCH":2416,"BSTAR":0.00011578,"MEAN_MOTION_DOT":6.62e-6,"MEAN_MOTION_DDOT":0},{"OBJECT_NAME":"KUIPER-00145","OBJECT_ID":"2025-217F","EPOCH":"2026-03-04T03:37:34.215744","MEAN_MOTION":14.79932214,"ECCENTRICITY":8.57e-5,"INCLINATION":51.8994,"RA_OF_ASC_NODE":62.5956,"ARG_OF_PERICENTER":77.2791,"MEAN_ANOMALY":282.8267,"EPHEMERIS_TYPE":0,"CLASSIFICATION_TYPE":"U","NORAD_CAT_ID":65767,"ELEMENT_SET_NO":999,"REV_AT_EPOCH":2412,"BSTAR":0.0006368,"MEAN_MOTION_DOT":4.637e-5,"MEAN_MOTION_DDOT":0},{"OBJECT_NAME":"KUIPER-00147","OBJECT_ID":"2025-217G","EPOCH":"2026-03-03T10:32:46.581792","MEAN_MOTION":14.79948148,"ECCENTRICITY":7.747e-5,"INCLINATION":51.8996,"RA_OF_ASC_NODE":68.2396,"ARG_OF_PERICENTER":99.6162,"MEAN_ANOMALY":260.4888,"EPHEMERIS_TYPE":0,"CLASSIFICATION_TYPE":"U","NORAD_CAT_ID":65768,"ELEMENT_SET_NO":999,"REV_AT_EPOCH":2398,"BSTAR":8.5452953e-5,"MEAN_MOTION_DOT":4.31e-6,"MEAN_MOTION_DDOT":0},{"OBJECT_NAME":"KUIPER-00148","OBJECT_ID":"2025-217H","EPOCH":"2026-03-04T02:40:20.289216","MEAN_MOTION":15.09562156,"ECCENTRICITY":0.0008669,"INCLINATION":51.8786,"RA_OF_ASC_NODE":50.5011,"ARG_OF_PERICENTER":336.1622,"MEAN_ANOMALY":23.895,"EPHEMERIS_TYPE":0,"CLASSIFICATION_TYPE":"U","NORAD_CAT_ID":65769,"ELEMENT_SET_NO":999,"REV_AT_EPOCH":2429,"BSTAR":0.0011012,"MEAN_MOTION_DOT":0.00017656,"MEAN_MOTION_DDOT":0},{"OBJECT_NAME":"KUIPER-00150","OBJECT_ID":"2025-217J","EPOCH":"2026-03-03T07:02:35.075328","MEAN_MOTION":14.79984567,"ECCENTRICITY":6.461e-5,"INCLINATION":51.9008,"RA_OF_ASC_NODE":78.889,"ARG_OF_PERICENTER":50.7718,"MEAN_ANOMALY":309.3301,"EPHEMERIS_TYPE":0,"CLASSIFICATION_TYPE":"U","NORAD_CAT_ID":65770,"ELEMENT_SET_NO":999,"REV_AT_EPOCH":2382,"BSTAR":0.00064227768,"MEAN_MOTION_DOT":4.684e-5,"MEAN_MOTION_DDOT":0},{"OBJECT_NAME":"KUIPER-00151","OBJECT_ID":"2025-217K","EPOCH":"2026-03-04T01:04:01.788960","MEAN_MOTION":14.79962589,"ECCENTRICITY":0.0001033,"INCLINATION":51.9005,"RA_OF_ASC_NODE":68.0641,"ARG_OF_PERICENTER":49.4998,"MEAN_ANOMALY":310.6054,"EPHEMERIS_TYPE":0,"CLASSIFICATION_TYPE":"U","NORAD_CAT_ID":65771,"ELEMENT_SET_NO":999,"REV_AT_EPOCH":2404,"BSTAR":0.00084227,"MEAN_MOTION_DOT":6.21e-5,"MEAN_MOTION_DDOT":0},{"OBJECT_NAME":"KUIPER-00152","OBJECT_ID":"2025-217L","EPOCH":"2026-03-04T03:49:18.677280","MEAN_MOTION":14.79978161,"ECCENTRICITY":8.23e-5,"INCLINATION":51.9003,"RA_OF_ASC_NODE":55.0492,"ARG_OF_PERICENTER":132.1446,"MEAN_ANOMALY":227.9587,"EPHEMERIS_TYPE":0,"CLASSIFICATION_TYPE":"U","NORAD_CAT_ID":65772,"ELEMENT_SET_NO":999,"REV_AT_EPOCH":2423,"BSTAR":0.00071561,"MEAN_MOTION_DOT":5.244e-5,"MEAN_MOTION_DDOT":0},{"OBJECT_NAME":"KUIPER-00153","OBJECT_ID":"2025-217M","EPOCH":"2026-03-03T09:22:15.870144","MEAN_MOTION":15.13069504,"ECCENTRICITY":0.00104764,"INCLINATION":51.8767,"RA_OF_ASC_NODE":56.8766,"ARG_OF_PERICENTER":304.9745,"MEAN_ANOMALY":55.0247,"EPHEMERIS_TYPE":0,"CLASSIFICATION_TYPE":"U","NORAD_CAT_ID":65773,"ELEMENT_SET_NO":999,"REV_AT_EPOCH":2414,"BSTAR":0.00061094134,"MEAN_MOTION_DOT":0.00010665,"MEAN_MOTION_DDOT":0},{"OBJECT_NAME":"KUIPER-00155","OBJECT_ID":"2025-217N","EPOCH":"2026-03-03T22:56:57.758784","MEAN_MOTION":15.22969272,"ECCENTRICITY":0.0005422,"INCLINATION":51.8788,"RA_OF_ASC_NODE":38.6371,"ARG_OF_PERICENTER":313.2237,"MEAN_ANOMALY":46.8291,"EPHEMERIS_TYPE":0,"CLASSIFICATION_TYPE":"U","NORAD_CAT_ID":65774,"ELEMENT_SET_NO":999,"REV_AT_EPOCH":2444,"BSTAR":0.0011851,"MEAN_MOTION_DOT":0.00028005,"MEAN_MOTION_DDOT":0},{"OBJECT_NAME":"KUIPER-00156","OBJECT_ID":"2025-217P","EPOCH":"2026-03-04T03:08:26.427552","MEAN_MOTION":14.79961145,"ECCENTRICITY":7.57e-5,"INCLINATION":51.9033,"RA_OF_ASC_NODE":50.203,"ARG_OF_PERICENTER":99.0073,"MEAN_ANOMALY":261.0975,"EPHEMERIS_TYPE":0,"CLASSIFICATION_TYPE":"U","NORAD_CAT_ID":65775,"ELEMENT_SET_NO":999,"REV_AT_EPOCH":2429,"BSTAR":0.00089646,"MEAN_MOTION_DOT":6.624e-5,"MEAN_MOTION_DDOT":0},{"OBJECT_NAME":"KUIPER-00158","OBJECT_ID":"2025-217Q","EPOCH":"2026-03-04T01:36:26.664192","MEAN_MOTION":14.80471066,"ECCENTRICITY":0.000111,"INCLINATION":51.8962,"RA_OF_ASC_NODE":70.3496,"ARG_OF_PERICENTER":40.334,"MEAN_ANOMALY":319.7704,"EPHEMERIS_TYPE":0,"CLASSIFICATION_TYPE":"U","NORAD_CAT_ID":65776,"ELEMENT_SET_NO":999,"REV_AT_EPOCH":2401,"BSTAR":0.0009564,"MEAN_MOTION_DOT":7.171e-5,"MEAN_MOTION_DDOT":0},{"OBJECT_NAME":"KUIPER-00163","OBJECT_ID":"2025-217R","EPOCH":"2026-03-04T04:00:03.000096","MEAN_MOTION":14.91497637,"ECCENTRICITY":0.000128,"INCLINATION":51.8962,"RA_OF_ASC_NODE":71.8829,"ARG_OF_PERICENTER":20.8881,"MEAN_ANOMALY":79.4184,"EPHEMERIS_TYPE":0,"CLASSIFICATION_TYPE":"U","NORAD_CAT_ID":65777,"ELEMENT_SET_NO":999,"REV_AT_EPOCH":534,"BSTAR":0.0058326,"MEAN_MOTION_DOT":0.00059249,"MEAN_MOTION_DDOT":0},{"OBJECT_NAME":"KUIPER-00165","OBJECT_ID":"2025-217S","EPOCH":"2026-03-03T10:40:32.699424","MEAN_MOTION":14.79986682,"ECCENTRICITY":0.00010128,"INCLINATION":51.9005,"RA_OF_ASC_NODE":63.2119,"ARG_OF_PERICENTER":110.7749,"MEAN_ANOMALY":249.3322,"EPHEMERIS_TYPE":0,"CLASSIFICATION_TYPE":"U","NORAD_CAT_ID":65778,"ELEMENT_SET_NO":999,"REV_AT_EPOCH":2405,"BSTAR":0.0017849029,"MEAN_MOTION_DOT":0.0001343,"MEAN_MOTION_DDOT":0},{"OBJECT_NAME":"KUIPER-00166","OBJECT_ID":"2025-217T","EPOCH":"2026-03-04T04:01:03.704736","MEAN_MOTION":14.79977563,"ECCENTRICITY":7.22e-5,"INCLINATION":51.9028,"RA_OF_ASC_NODE":47.5392,"ARG_OF_PERICENTER":106.004,"MEAN_ANOMALY":254.1002,"EPHEMERIS_TYPE":0,"CLASSIFICATION_TYPE":"U","NORAD_CAT_ID":65779,"ELEMENT_SET_NO":999,"REV_AT_EPOCH":2433,"BSTAR":0.0012492,"MEAN_MOTION_DOT":9.325e-5,"MEAN_MOTION_DDOT":0}]
